{"fetched_at":"2026-07-21T17:53:59.305Z","source":"https://celestrak.org/NORAD/elements/gp.php?NAME=UMBRA&FORMAT=JSON","constellation":"umbra","records":[{"OBJECT_NAME":"UMBRA-07","OBJECT_ID":"2023-174AT","EPOCH":"2026-07-21T02:43:19.938144","CLASSIFICATION_TYPE":"U","MEAN_MOTION":15.09678649,"ECCENTRICITY":0.00016079,"INCLINATION":97.3768,"RA_OF_ASC_NODE":256.6006,"ARG_OF_PERICENTER":348.7968,"MEAN_ANOMALY":11.3225,"EPHEMERIS_TYPE":0,"NORAD_CAT_ID":58297,"ELEMENT_SET_NO":999,"REV_AT_EPOCH":14853,"BSTAR":0.00043337052,"MEAN_MOTION_DOT":0.00006921,"MEAN_MOTION_DDOT":0},{"OBJECT_NAME":"UMBRA-09","OBJECT_ID":"2024-149CB","EPOCH":"2026-07-21T03:14:18.682080","CLASSIFICATION_TYPE":"U","MEAN_MOTION":15.18961075,"ECCENTRICITY":0.00022052,"INCLINATION":97.6962,"RA_OF_ASC_NODE":289.9445,"ARG_OF_PERICENTER":190.5155,"MEAN_ANOMALY":169.6033,"EPHEMERIS_TYPE":0,"NORAD_CAT_ID":60541,"ELEMENT_SET_NO":999,"REV_AT_EPOCH":10587,"BSTAR":0.0005752195,"MEAN_MOTION_DOT":0.00011963,"MEAN_MOTION_DDOT":0},{"OBJECT_NAME":"UMBRA-10","OBJECT_ID":"2024-149CH","EPOCH":"2026-07-21T03:13:39.793440","CLASSIFICATION_TYPE":"U","MEAN_MOTION":15.18958058,"ECCENTRICITY":0.00020019,"INCLINATION":97.6966,"RA_OF_ASC_NODE":289.9748,"ARG_OF_PERICENTER":157.2361,"MEAN_ANOMALY":202.8962,"EPHEMERIS_TYPE":0,"NORAD_CAT_ID":60547,"ELEMENT_SET_NO":999,"REV_AT_EPOCH":10588,"BSTAR":0.00057978317,"MEAN_MOTION_DOT":0.00012057,"MEAN_MOTION_DDOT":0},{"OBJECT_NAME":"UMBRA-11","OBJECT_ID":"2025-276CL","EPOCH":"2026-07-21T03:03:29.237472","CLASSIFICATION_TYPE":"U","MEAN_MOTION":15.27926166,"ECCENTRICITY":0.00032286,"INCLINATION":97.4178,"RA_OF_ASC_NODE":276.5756,"ARG_OF_PERICENTER":169.5816,"MEAN_ANOMALY":190.5491,"EPHEMERIS_TYPE":0,"NORAD_CAT_ID":66748,"ELEMENT_SET_NO":999,"REV_AT_EPOCH":3567,"BSTAR":0.00056929262,"MEAN_MOTION_DOT":0.0001546,"MEAN_MOTION_DDOT":0},{"OBJECT_NAME":"UMBRA-12","OBJECT_ID":"2026-004J","EPOCH":"2026-07-21T05:37:58.401408","CLASSIFICATION_TYPE":"U","MEAN_MOTION":14.89564031,"ECCENTRICITY":0.00069674,"INCLINATION":97.8033,"RA_OF_ASC_NODE":200.5399,"ARG_OF_PERICENTER":36.5519,"MEAN_ANOMALY":323.6173,"EPHEMERIS_TYPE":0,"NORAD_CAT_ID":67371,"ELEMENT_SET_NO":999,"REV_AT_EPOCH":2837,"BSTAR":0.00032527927,"MEAN_MOTION_DOT":0.00003049,"MEAN_MOTION_DDOT":0}]}
