UMBRA-07                
1 58297U 23174AT  26202.11342521  .00006921  00000+0  43337-3 0  9999
2 58297  97.3768 256.6006 0001607 348.7968  11.3225 15.09678649148537
UMBRA-09                
1 60541U 24149CB  26202.13493845  .00011963  00000+0  57522-3 0  9998
2 60541  97.6962 289.9445 0002205 190.5155 169.6033 15.18961075105875
UMBRA-10                
1 60547U 24149CH  26202.13448835  .00012057  00000+0  57978-3 0  9993
2 60547  97.6966 289.9748 0002001 157.2361 202.8962 15.18958058105883
UMBRA-11                
1 66748U 25276CL  26202.12742173  .00015460  00000+0  56929-3 0  9991
2 66748  97.4178 276.5756 0003228 169.5816 190.5491 15.27926166 35673
UMBRA-12                
1 67371U 26004J   26202.23470372  .00003049  00000+0  32528-3 0  9994
2 67371  97.8033 200.5399 0006967  36.5519 323.6173 14.89564031 28377
